{
    "links": {
        "self": "http://www.neowsapp.com/rest/v1/neo/3653646?api_key=iIulBulltgU6a56xZRHN4H3l9WmuAYTsLGpBGhQ2"
    },
    "id": "3653646",
    "neo_reference_id": "3653646",
    "name": "(2013 VK11)",
    "designation": "2013 VK11",
    "nasa_jpl_url": "http://ssd.jpl.nasa.gov/sbdb.cgi?sstr=3653646",
    "absolute_magnitude_h": 26.9,
    "estimated_diameter": {
        "kilometers": {
            "estimated_diameter_min": 0.0110803882,
            "estimated_diameter_max": 0.0247765013
        },
        "meters": {
            "estimated_diameter_min": 11.0803882126,
            "estimated_diameter_max": 24.7765012606
        },
        "miles": {
            "estimated_diameter_min": 0.0068850319,
            "estimated_diameter_max": 0.0153953994
        },
        "feet": {
            "estimated_diameter_min": 36.3529808636,
            "estimated_diameter_max": 81.2877363957
        }
    },
    "is_potentially_hazardous_asteroid": false,
    "close_approach_data": [
        {
            "close_approach_date": "2013-11-09",
            "close_approach_date_full": "2013-Nov-09 10:50",
            "epoch_date_close_approach": 1383994200000,
            "relative_velocity": {
                "kilometers_per_second": "8.790690143",
                "kilometers_per_hour": "31646.4845146921",
                "miles_per_hour": "19663.8947808096"
            },
            "miss_distance": {
                "astronomical": "0.0130837565",
                "lunar": "5.0895812785",
                "kilometers": "1957302.103998655",
                "miles": "1216211.130965239"
            },
            "orbiting_body": "Earth"
        }
    ],
    "orbital_data": {
        "orbit_id": "6",
        "orbit_determination_date": "2017-04-06 08:43:45",
        "first_observation_date": "2013-11-09",
        "last_observation_date": "2013-11-14",
        "data_arc_in_days": 5,
        "observations_used": 41,
        "orbit_uncertainty": "7",
        "minimum_orbit_intersection": ".0137753",
        "jupiter_tisserand_invariant": "3.671",
        "epoch_osculation": "2459000.5",
        "eccentricity": ".4996205007970103",
        "semi_major_axis": "1.990118923932464",
        "inclination": "9.461803665925672",
        "ascending_node_longitude": "48.97792710547434",
        "orbital_period": "1025.455859440302",
        "perihelion_distance": ".9958147105117192",
        "perihelion_argument": "346.5461510730061",
        "aphelion_distance": "2.984423137353209",
        "perihelion_time": "2458648.492312274326",
        "mean_anomaly": "123.5770086197649",
        "mean_motion": ".3510633799454709",
        "equinox": "J2000",
        "orbit_class": {
            "orbit_class_type": "APO",
            "orbit_class_description": "Near-Earth asteroid orbits which cross the Earth’s orbit similar to that of 1862 Apollo",
            "orbit_class_range": "a (semi-major axis) > 1.0 AU; q (perihelion) < 1.017 AU"
        }
    },
    "is_sentry_object": false
}